SKYSAT-C4               
1 41771U 16058B   26192.29944955  .00011120  00000+0  20453-3 0  9998
2 41771  96.9169 213.0724 0003340 123.6372 236.5199 15.49349353549206
SKYSAT-C5               
1 41772U 16058C   26192.36187329  .00005913  00000+0  18383-3 0  9993
2 41772  97.0463 231.9219 0001982 174.0527 186.0740 15.33685324547456
SKYSAT-C2               
1 41773U 16058D   26191.48618128  .00008725  00000+0  20244-3 0  9995
2 41773  97.0164 212.7103 0002034  13.3625 346.7677 15.42607580548641
SKYSAT-C3               
1 41774U 16058E   26191.01715193  .00018005  00000+0  28437-3 0  9999
2 41774  96.9003 220.9981 0002189 133.5121 226.6316 15.53540793549656
ALSAT-1B                
1 41785U 16059C   26192.50296502  .00000100  00000+0  23271-4 0  9994
2 41785  97.7758 200.2173 0010063 140.2563 219.9384 14.72292354524158
PATHFINDER 1            
1 41787U 16059E   26192.47545264  .00000311  00000+0  62393-4 0  9996
2 41787  97.8174 190.6563 0029659 127.0599 233.3325 14.67690529523278
SCATSAT 1               
1 41790U 16059H   26192.15403595  .00000700  00000+0  98624-4 0  9993
2 41790  98.1179 256.1664 0054927 169.4566 190.7811 14.79580882105131
GOKTURK 1A              
1 41875U 16073A   26192.52901421 -.00000050  00000+0 -64044-6 0  9996
2 41875  98.1224  86.8187 0001460  80.3229 279.8137 14.62790704512382
RESOURCESAT-2A          
1 41877U 16074A   26192.49348899  .00000070  00000+0  52097-4 0  9992
2 41877  98.7521 265.7984 0002642  36.5993 323.5365 14.21607923497755
CARTOSAT-2D             
1 41948U 17008A   26192.52807564  .00001624  00000+0  80187-4 0  9999
2 41948  97.4101 251.3778 0005707 148.7007 211.4569 15.19266050521279
SENTINEL-2B             
1 42063U 17013A   26192.47323486  .00000246  00000+0  11069-3 0  9995
2 42063  98.5686 266.9044 0001225  90.0249 270.1074 14.30814969488112
CARTOSAT-2E             
1 42767U 17036C   26192.47990791  .00001508  00000+0  74781-4 0  9993
2 42767  97.4271 251.8803 0002882 200.8866 159.2251 15.19237089501832
FORMOSAT-5              
1 42920U 17049A   26192.46583126  .00000051  00000+0  24050-4 0  9993
2 42920  98.2247 267.2356 0011588  15.1729 344.9811 14.50907222470193
SENTINEL-5P             
1 42969U 17064A   26192.23757376  .00000008  00000+0  24984-4 0  9996
2 42969  98.7929 134.1985 0001125  92.7297 267.4008 14.19522884452970
SKYSAT-C11              
1 42987U 17068A   26192.39121870  .00019904  00000+0  25539-3 0  9992
2 42987  97.4365 342.3022 0000883 163.4295 196.6990 15.59177913487019
SKYSAT-C10              
1 42988U 17068B   26190.65457372  .00007814  00000+0  23222-3 0  9993
2 42988  97.4523 327.7297 0001360 109.0541 251.0850 15.35042344485807
SKYSAT-C9               
1 42989U 17068C   26192.18672867  .00008274  00000+0  19496-3 0  9991
2 42989  97.4444 330.4450 0008945  57.4451 302.7659 15.42149851486456
SKYSAT-C8               
1 42990U 17068D   26190.65650340  .00007514  00000+0  20712-3 0  9994
2 42990  97.4543 327.6181 0001224  99.9689 260.1694 15.37418486485760
SKYSAT-C7               
1 42991U 17068E   26192.34309580  .00006440  00000+0  17791-3 0  9990
2 42991  97.4553 330.3198 0006060  34.3355 325.8280 15.37393972486085
SKYSAT-C6               
1 42992U 17068F   26192.34475515  .00005669  00000+0  17408-3 0  9990
2 42992  97.4592 330.1923 0005167  98.6641 261.5187 15.34127471486023
CARTOSAT-2F             
1 43111U 18004A   26192.44663613  .00002606  00000+0  12691-3 0  9991
2 43111  97.4783 251.8426 0002421 145.2470 214.8923 15.19252689471010
GAOFEN-1 02             
1 43259U 18031A   26192.49276183  .00000851  00000+0  12973-3 0  9994
2 43259  98.0519 254.9505 0001640 308.6564  51.4499 14.76470892446284
GAOFEN-1 03             
1 43260U 18031B   26192.53860872  .00000376  00000+0  61519-4 0  9998
2 43260  98.0505 254.8518 0002705  25.6804 334.4540 14.76459524446280
GAOFEN-1 04             
1 43262U 18031D   26192.51433231  .00000224  00000+0  39627-4 0  9990
2 43262  98.0520 255.0216 0001464  57.2069 302.9281 14.76467619446277
SENTINEL-3B             
1 43437U 18039A   26192.17410468  .00000038  00000+0  33847-4 0  9992
2 43437  98.6238 259.3610 0001055 120.7417 239.3868 14.26741288427542
GAOFEN-5 01             
1 43461U 18043A   26192.51791791  .00000160  00000+0  42951-4 0  9995
2 43461  98.4586 164.6177 0002314  40.3217 319.8154 14.60621926435245
GAOFEN-6                
1 43484U 18048A   26192.53666970  .00000784  00000+0  12035-3 0  9998
2 43484  98.0962 255.2300 0012143  91.9447 268.3153 14.76382113436985
GAOFEN-11 01            
1 43585U 18063A   26192.48817729  .00014863  00000+0  21502-3 0  9993
2 43585  97.1283 259.3083 0002772 215.1564 144.9509 15.55999206444127
ICESAT-2                
1 43613U 18070A   26192.51333987  .00005844  00000+0  21190-3 0  9998
2 43613  92.0089 297.5524 0005733  73.4305 286.7574 15.28309356436173
HYSIS                   
1 43719U 18096A   26192.50522807  .00000949  00000+0  13651-3 0  9997
2 43719  97.9833 259.0614 0001877  85.1411 275.0015 14.78667659411011
KAZSTSAT                
1 43783U 18099AB  26192.04730664  .00000896  00000+0  76624-4 0  9993
2 43783  97.4317 222.8991 0007630 357.1189   2.9990 14.99949090414889
