OBJECT_NAME,OBJECT_ID,EPOCH,MEAN_MOTION,ECCENTRICITY,INCLINATION,RA_OF_ASC_NODE,ARG_OF_PERICENTER,MEAN_ANOMALY,EPHEMERIS_TYPE,CLASSIFICATION_TYPE,NORAD_CAT_ID,ELEMENT_SET_NO,REV_AT_EPOCH,BSTAR,MEAN_MOTION_DOT,MEAN_MOTION_DDOT
SKYSAT-C4,2016-058B,2026-07-11T07:11:12.441120,15.49349353,.000334,96.9169,213.0724,123.6372,236.5199,0,U,41771,999,54920,.20453E-3,.1112E-3,0
SKYSAT-C5,2016-058C,2026-07-11T08:41:05.852256,15.33685324,.0001982,97.0463,231.9219,174.0527,186.0740,0,U,41772,999,54745,.18383E-3,.5913E-4,0
SKYSAT-C2,2016-058D,2026-07-10T11:40:06.062592,15.42607580,.00020347,97.0164,212.7103,13.3625,346.7677,0,U,41773,999,54864,.2024409E-3,.8725E-4,0
SKYSAT-C3,2016-058E,2026-07-10T00:24:41.926752,15.53540793,.00021894,96.9003,220.9981,133.5121,226.6316,0,U,41774,999,54965,.284373E-3,.18005E-3,0
ALSAT-1B,2016-059C,2026-07-11T12:04:16.177728,14.72292354,.0010063,97.7758,200.2173,140.2563,219.9384,0,U,41785,999,52415,.23271E-4,.1E-5,0
PATHFINDER 1,2016-059E,2026-07-11T11:24:39.108096,14.67690529,.0029659,97.8174,190.6563,127.0599,233.3325,0,U,41787,999,52327,.62393E-4,.311E-5,0
SCATSAT 1,2016-059H,2026-07-11T03:41:48.706080,14.79580882,.0054927,98.1179,256.1664,169.4566,190.7811,0,U,41790,999,10513,.98624E-4,.7E-5,0
GOKTURK 1A,2016-073A,2026-07-11T12:41:46.827744,14.62790704,.000146,98.1224,86.8187,80.3229,279.8137,0,U,41875,999,51238,-.64044E-6,-.5E-6,0
RESOURCESAT-2A,2016-074A,2026-07-11T11:50:37.448736,14.21607923,.0002642,98.7521,265.7984,36.5993,323.5365,0,U,41877,999,49775,.52097E-4,.7E-6,0
CARTOSAT-2D,2017-008A,2026-07-11T12:40:25.735296,15.19266050,.0005707,97.4101,251.3778,148.7007,211.4569,0,U,41948,999,52127,.80187E-4,.1624E-4,0
SENTINEL-2B,2017-013A,2026-07-11T11:21:27.491904,14.30814969,.0001225,98.5686,266.9044,90.0249,270.1074,0,U,42063,999,48811,.11069E-3,.246E-5,0
CARTOSAT-2E,2017-036C,2026-07-11T11:31:04.043424,15.19237089,.0002882,97.4271,251.8803,200.8866,159.2251,0,U,42767,999,50183,.74781E-4,.1508E-4,0
FORMOSAT-5,2017-049A,2026-07-11T11:10:47.820864,14.50907222,.0011588,98.2247,267.2356,15.1729,344.9811,0,U,42920,999,47019,.2405E-4,.51E-6,0
SENTINEL-5P,2017-064A,2026-07-11T05:42:06.372864,14.19522884,.0001125,98.7929,134.1985,92.7297,267.4008,0,U,42969,999,45297,.24984E-4,.8E-7,0
SKYSAT-C11,2017-068A,2026-07-11T09:23:21.295680,15.59177913,.0000883,97.4365,342.3022,163.4295,196.6990,0,U,42987,999,48701,.25539E-3,.19904E-3,0
SKYSAT-C10,2017-068B,2026-07-09T15:42:35.169408,15.35042344,.00013609,97.4523,327.7297,109.0541,251.0850,0,U,42988,999,48580,.23222205E-3,.7814E-4,0
SKYSAT-C9,2017-068C,2026-07-11T04:28:53.357088,15.42149851,.0008945,97.4444,330.4450,57.4451,302.7659,0,U,42989,999,48645,.19496E-3,.8274E-4,0
SKYSAT-C8,2017-068D,2026-07-09T15:45:21.893760,15.37418486,.00012242,97.4543,327.6181,99.9689,260.1694,0,U,42990,999,48576,.20711554E-3,.7514E-4,0
SKYSAT-C7,2017-068E,2026-07-11T08:14:03.477120,15.37393972,.000606,97.4553,330.3198,34.3355,325.8280,0,U,42991,999,48608,.17791E-3,.644E-4,0
SKYSAT-C6,2017-068F,2026-07-11T08:16:26.844960,15.34127471,.0005167,97.4592,330.1923,98.6641,261.5187,0,U,42992,999,48602,.17408E-3,.5669E-4,0
CARTOSAT-2F,2018-004A,2026-07-11T10:43:09.361632,15.19252689,.0002421,97.4783,251.8426,145.2470,214.8923,0,U,43111,999,47101,.12691E-3,.2606E-4,0
GAOFEN-1 02,2018-031A,2026-07-11T11:49:34.622112,14.76470892,.000164,98.0519,254.9505,308.6564,51.4499,0,U,43259,999,44628,.12973E-3,.851E-5,0
GAOFEN-1 03,2018-031B,2026-07-11T12:55:35.793408,14.76459524,.0002705,98.0505,254.8518,25.6804,334.4540,0,U,43260,999,44628,.61519E-4,.376E-5,0
GAOFEN-1 04,2018-031D,2026-07-11T12:20:38.311584,14.76467619,.0001464,98.0520,255.0216,57.2069,302.9281,0,U,43262,999,44627,.39627E-4,.224E-5,0
SENTINEL-3B,2018-039A,2026-07-11T04:10:42.644352,14.26741288,.0001055,98.6238,259.3610,120.7417,239.3868,0,U,43437,999,42754,.33847E-4,.38E-6,0
GAOFEN-5 01,2018-043A,2026-07-11T12:25:48.107424,14.60621926,.0002314,98.4586,164.6177,40.3217,319.8154,0,U,43461,999,43524,.42951E-4,.16E-5,0
GAOFEN-6,2018-048A,2026-07-11T12:52:48.262080,14.76382113,.0012143,98.0962,255.2300,91.9447,268.3153,0,U,43484,999,43698,.12035E-3,.784E-5,0
GAOFEN-11 01,2018-063A,2026-07-11T11:42:58.517856,15.55999206,.0002772,97.1283,259.3083,215.1564,144.9509,0,U,43585,999,44412,.21502E-3,.14863E-3,0
ICESAT-2,2018-070A,2026-07-11T12:19:12.564768,15.28309356,.0005733,92.0089,297.5524,73.4305,286.7574,0,U,43613,999,43617,.2119E-3,.5844E-4,0
HYSIS,2018-096A,2026-07-11T12:07:31.705248,14.78667659,.0001877,97.9833,259.0614,85.1411,275.0015,0,U,43719,999,41101,.13651E-3,.949E-5,0
KAZSTSAT,2018-099AB,2026-07-11T01:08:07.293696,14.99949090,.000763,97.4317,222.8991,357.1189,2.9990,0,U,43783,999,41488,.76624E-4,.896E-5,0
